SL-14 R/B               
1 20511U 90018B   26164.77099669  .00000356  00000+0  41521-4 0  9999
2 20511  82.5209 133.3007 0017255 132.1939 228.0743 14.82214145936817
HST                     
1 20580U 90037B   26164.23141094  .00006133  00000+0  19317-3 0  9993
2 20580  28.4712 107.6084 0001932 101.0971 258.9842 15.30704754787962
SL-16 R/B               
1 20625U 90046B   26164.83775654  .00000235  00000+0  14553-3 0  9998
2 20625  70.9994  95.9822 0013625 166.7755 193.3728 14.15025185861992
COSMOS 2084             
1 20663U 90055A   26164.87455977  .00002045  00000+0  15291-3 0  9998
2 20663  62.7910   7.3977 0005513 273.4379  86.6091 15.06103747950802
SL-6 R/B(2)             
1 20666U 90055D   26164.72494545  .00001539  00000+0  12370-3 0  9991
2 20666  62.7824 287.1581 0040064   4.6309 355.5153 15.03993046952631
SL-8 R/B                
1 20775U 90078B   26164.70829700  .00019398  00000+0  54632-3 0  9999
2 20775  82.9003 164.7880 0351715  50.1979 312.9645 14.92184562823603
SL-8 R/B                
1 21088U 91006B   26164.86757713  .00000028  00000+0  12758-4 0  9994
2 21088  82.9424  98.5032 0023545 123.3884 299.0111 13.77505600777317
OKEAN-3                 
1 21397U 91039A   26164.74850251  .00002391  00000+0  16486-3 0  9997
2 21397  82.5158 243.7154 0014367  10.8186 349.3347 15.05308913879488
COSMOS 2151             
1 21422U 91042A   26164.79195759  .00001685  00000+0  13169-3 0  9990
2 21422  82.4960 350.9579 0013825  94.1505 266.1300 15.00429295877606
SL-14 R/B               
1 21423U 91042B   26164.84432992  .00000343  00000+0  40377-4 0  9992
2 21423  82.4925 130.0304 0015487 286.9696  72.9820 14.81900606867314
ERS-1                   
1 21574U 91050A   26164.68943493  .00000341  00000+0  12368-3 0  9999
2 21574  98.7797 185.3019 0030705 277.8245  81.9457 14.39515955829544
ARIANE 40 R/B           
1 21610U 91050F   26164.72057457  .00000264  00000+0  91359-4 0  9993
2 21610  98.1877 213.2724 0004119 128.7489 231.4071 14.42955209832841
INTERCOSMOS 25          
1 21819U 91086A   26164.48024275  .00000555  00000+0  11075-3 0  9997
2 21819  82.6052 252.0532 1484152 270.3971  72.7791 12.12191203508298
SL-8 R/B                
1 21876U 92008B   26164.87634006  .00000144  00000+0  13287-3 0  9998
2 21876  82.9264 196.2493 0033641 224.1876 309.5510 13.75976063722649
SL-8 R/B                
1 21938U 92020B   26164.85416874  .00000048  00000+0  33705-4 0  9991
2 21938  82.9306  82.3329 0029932  31.6551  32.6053 13.75548487714357
USA 81                  
1 21949U 92023A   26164.85189275  .00000155  00000+0  50001-4 0  9995
2 21949  85.0077  75.9324 0002772  87.6389 272.5121 14.32397417108553
COSMOS 2219             
1 22219U 92076A   26164.72447711  .00000190  00000+0  12417-3 0  9999
2 22219  71.0576 177.3108 0016442  49.8192 310.4367 14.14097046731956
SL-16 R/B               
1 22220U 92076B   26164.86054529  .00000015  00000+0  31269-4 0  9990
2 22220  71.0003 345.7893 0014594 303.0062 156.9146 14.16871235735451
COSMOS 2221             
1 22236U 92080A   26164.79585815  .00001326  00000+0  11428-3 0  9991
2 22236  82.5030 187.0138 0013023 224.4811 135.5367 14.96525610795161
SL-16 R/B               
1 22285U 92093B   26164.70896753 -.00000290  00000+0 -12389-3 0  9994
2 22285  71.0199 162.6934 0004152 194.2080 165.8927 14.15462839726742
COSMOS 2228             
1 22286U 92094A   26164.81370128  .00001937  00000+0  16319-3 0  9995
2 22286  82.5173 145.2740 0017216 344.0551  16.0127 14.97575658790448
SL-16 R/B               
1 22566U 93016B   26164.83004088  .00000327  00000+0  19204-3 0  9990
2 22566  71.0083  13.2589 0010461 188.1516 171.9438 14.15312059715773
COSMOS 2242             
1 22626U 93024A   26164.77160845  .00001624  00000+0  13901-3 0  9992
2 22626  82.5179 174.8107 0015671 348.2458  11.8396 14.96894345794768
SL-16 R/B               
1 22803U 93059B   26164.74915755  .00000179  00000+0  11222-3 0  9990
2 22803  70.9886 168.5540 0015126  59.9219 300.3403 14.17247570693148
ARIANE 40 R/B           
1 22830U 93061H   26164.78381576  .00000174  00000+0  79493-4 0  9995
2 22830  98.4819 231.7115 0010689   6.5534 353.5788 14.32906609707860
COSMOS 2278             
1 23087U 94023A   26164.85222532  .00000226  00000+0  14273-3 0  9995
2 23087  71.0548 333.9027 0010600 247.0225 112.9780 14.14396892658401
SL-16 R/B               
1 23088U 94023B   26164.64340287  .00000333  00000+0  19644-3 0  9997
2 23088  70.9994 229.3737 0003005 189.5961 170.5105 14.15022922659660
SL-16 R/B               
1 23343U 94074B   26164.85434360  .00000391  00000+0  58854-4 0  9997
2 23343  97.6992 191.7141 0005070 267.7001 265.1192 14.79499790701461
SL-16 R/B               
1 23405U 94077B   26164.65820204 -.00000097  00000+0 -25069-4 0  9990
2 23405  70.9807 150.5867 0002784 330.3606  29.7358 14.15571761629819
ARIANE 40+ R/B          
1 23561U 95021B   26164.79779692  .00000233  00000+0  88199-4 0  9995
2 23561  98.4411 234.9216 0006212 204.1608 266.7431 14.39831604633072
SL-16 R/B               
1 23705U 95058B   26164.81116373  .00000219  00000+0  13628-3 0  9997
2 23705  71.0217 338.4467 0013594 325.1112  34.9119 14.15506472581454
