OBJECT_NAME,OBJECT_ID,EPOCH,MEAN_MOTION,ECCENTRICITY,INCLINATION,RA_OF_ASC_NODE,ARG_OF_PERICENTER,MEAN_ANOMALY,EPHEMERIS_TYPE,CLASSIFICATION_TYPE,NORAD_CAT_ID,ELEMENT_SET_NO,REV_AT_EPOCH,BSTAR,MEAN_MOTION_DOT,MEAN_MOTION_DDOT
SL-14 R/B,1990-018B,2026-06-13T18:30:14.114016,14.82214145,.0017255,82.5209,133.3007,132.1939,228.0743,0,U,20511,999,93681,.41521E-4,.356E-5,0
HST,1990-037B,2026-06-13T05:33:13.905216,15.30704754,.0001932,28.4712,107.6084,101.0971,258.9842,0,U,20580,999,78796,.19317E-3,.6133E-4,0
SL-16 R/B,1990-046B,2026-06-13T20:06:22.165056,14.15025185,.0013625,70.9994,95.9822,166.7755,193.3728,0,U,20625,999,86199,.14553E-3,.235E-5,0
COSMOS 2084,1990-055A,2026-06-13T20:59:21.964128,15.06103747,.0005513,62.7910,7.3977,273.4379,86.6091,0,U,20663,999,95080,.15291E-3,.2045E-4,0
SL-6 R/B(2),1990-055D,2026-06-13T17:23:55.286880,15.03993046,.0040064,62.7824,287.1581,4.6309,355.5153,0,U,20666,999,95263,.1237E-3,.1539E-4,0
SL-8 R/B,1990-078B,2026-06-13T16:59:56.860800,14.92184562,.0351715,82.9003,164.7880,50.1979,312.9645,0,U,20775,999,82360,.54632E-3,.19398E-3,0
SL-8 R/B,1991-006B,2026-06-13T20:49:18.664032,13.77505600,.0023545,82.9424,98.5032,123.3884,299.0111,0,U,21088,999,77731,.12758E-4,.28E-6,0
OKEAN-3,1991-039A,2026-06-13T17:57:50.616864,15.05308913,.0014367,82.5158,243.7154,10.8186,349.3347,0,U,21397,999,87948,.16486E-3,.2391E-4,0
COSMOS 2151,1991-042A,2026-06-13T19:00:25.135776,15.00429295,.0013825,82.4960,350.9579,94.1505,266.1300,0,U,21422,999,87760,.13169E-3,.1685E-4,0
SL-14 R/B,1991-042B,2026-06-13T20:15:50.105088,14.81900606,.0015487,82.4925,130.0304,286.9696,72.9820,0,U,21423,999,86731,.40377E-4,.343E-5,0
ERS-1,1991-050A,2026-06-13T16:32:47.177952,14.39515955,.0030705,98.7797,185.3019,277.8245,81.9457,0,U,21574,999,82954,.12368E-3,.341E-5,0
ARIANE 40 R/B,1991-050F,2026-06-13T17:17:37.642848,14.42955209,.0004119,98.1877,213.2724,128.7489,231.4071,0,U,21610,999,83284,.91359E-4,.264E-5,0
INTERCOSMOS 25,1991-086A,2026-06-13T11:31:32.973600,12.12191203,.14841528,82.6052,252.0532,270.3971,72.7791,0,U,21819,999,50829,.11074759E-3,.555E-5,0
SL-8 R/B,1992-008B,2026-06-13T21:01:55.781184,13.75976063,.0033641,82.9264,196.2493,224.1876,309.5510,0,U,21876,999,72264,.13287E-3,.144E-5,0
SL-8 R/B,1992-020B,2026-06-13T20:30:00.179136,13.75548487,.0029932,82.9306,82.3329,31.6551,32.6053,0,U,21938,999,71435,.33705E-4,.48E-6,0
USA 81,1992-023A,2026-06-13T20:26:43.533600,14.32397417,.0002772,85.0077,75.9324,87.6389,272.5121,0,U,21949,999,10855,.50001E-4,.155E-5,0
COSMOS 2219,1992-076A,2026-06-13T17:23:14.822304,14.14097046,.0016442,71.0576,177.3108,49.8192,310.4367,0,U,22219,999,73195,.12417E-3,.19E-5,0
SL-16 R/B,1992-076B,2026-06-13T20:39:11.113056,14.16871235,.0014594,71.0003,345.7893,303.0062,156.9146,0,U,22220,999,73545,.31269E-4,.15E-6,0
COSMOS 2221,1992-080A,2026-06-13T19:06:02.144160,14.96525610,.0013023,82.5030,187.0138,224.4811,135.5367,0,U,22236,999,79516,.11428E-3,.1326E-4,0
SL-16 R/B,1992-093B,2026-06-13T17:00:54.794592,14.15462839,.0004152,71.0199,162.6934,194.2080,165.8927,0,U,22285,999,72674,-.12389E-3,-.29E-5,0
COSMOS 2228,1992-094A,2026-06-13T19:31:43.790592,14.97575658,.0017216,82.5173,145.2740,344.0551,16.0127,0,U,22286,999,79044,.16319E-3,.1937E-4,0
SL-16 R/B,1993-016B,2026-06-13T19:55:15.532032,14.15312059,.0010461,71.0083,13.2589,188.1516,171.9438,0,U,22566,999,71577,.19204E-3,.327E-5,0
COSMOS 2242,1993-024A,2026-06-13T18:31:06.970080,14.96894345,.0015671,82.5179,174.8107,348.2458,11.8396,0,U,22626,999,79476,.13901E-3,.1624E-4,0
SL-16 R/B,1993-059B,2026-06-13T17:58:47.212320,14.17247570,.0015126,70.9886,168.5540,59.9219,300.3403,0,U,22803,999,69314,.11222E-3,.179E-5,0
ARIANE 40 R/B,1993-061H,2026-06-13T18:48:41.681664,14.32906609,.0010689,98.4819,231.7115,6.5534,353.5788,0,U,22830,999,70786,.79493E-4,.174E-5,0
COSMOS 2278,1994-023A,2026-06-13T20:27:12.267648,14.14396892,.00106,71.0548,333.9027,247.0225,112.9780,0,U,23087,999,65840,.14273E-3,.226E-5,0
SL-16 R/B,1994-023B,2026-06-13T15:26:30.007968,14.15022922,.0003005,70.9994,229.3737,189.5961,170.5105,0,U,23088,999,65966,.19644E-3,.333E-5,0
SL-16 R/B,1994-074B,2026-06-13T20:30:15.287040,14.79499790,.000507,97.6992,191.7141,267.7001,265.1192,0,U,23343,999,70146,.58854E-4,.391E-5,0
SL-16 R/B,1994-077B,2026-06-13T15:47:48.656256,14.15571761,.0002784,70.9807,150.5867,330.3606,29.7358,0,U,23405,999,62981,-.25069E-4,-.97E-6,0
ARIANE 40+ R/B,1995-021B,2026-06-13T19:08:49.653888,14.39831604,.0006212,98.4411,234.9216,204.1608,266.7431,0,U,23561,999,63307,.88199E-4,.233E-5,0
SL-16 R/B,1995-058B,2026-06-13T19:28:04.546272,14.15506472,.0013594,71.0217,338.4467,325.1112,34.9119,0,U,23705,999,58145,.13628E-3,.219E-5,0
